#cP2021  3 23  0  0  0.00000000      96 ORBIT IGb14 HLM  IGS
## 2150 172800.00000000   900.00000000 59296 0.0000000000000
+   21   R01R02R03R04R05R07R08R09R11R12R13R14R15R16R17R18R19
+        R20R21R22R24  0  0  0  0  0  0  0  0  0  0  0  0  0
+          0  0  0  0  0  0  0  0  0  0  0  0  0  0  0  0  0
+          0  0  0  0  0  0  0  0  0  0  0  0  0  0  0  0  0
+          0  0  0  0  0  0  0  0  0  0  0  0  0  0  0  0  0
++         4  3  3  4  3  3  3  3  3  3  4  3  3  4  3  3  4
++         5  3  5  3  0  0  0  0  0  0  0  0  0  0  0  0  0
++         0  0  0  0  0  0  0  0  0  0  0  0  0  0  0  0  0
++         0  0  0  0  0  0  0  0  0  0  0  0  0  0  0  0  0
++         0  0  0  0  0  0  0  0  0  0  0  0  0  0  0  0  0
%c R  cc GPS ccc cccc cccc cccc cccc ccccc ccccc ccccc ccccc
%c cc cc ccc ccc cccc cccc cccc cccc ccccc ccccc ccccc ccccc
%f  1.2500000  1.025000000  0.00000000000  0.000000000000000
%f  0.0000000  0.000000000  0.00000000000  0.000000000000000
%i    0    0    0    0      0      0      0      0         0
%i    0    0    0    0      0      0      0      0         0
/* FINAL ORBIT COMBINATION FROM WEIGHTED AVERAGE OF:        
/* brx cod emx esx gfz grg iac mcc                          
/*                                                          
/* PCV:IGS14_2148 OL/AL:FES2004  NONE     Y  ORB:CMB CLK:CMB
*  2021  3 23  8  0  0.00000000
PR01  22841.835176   9497.848532  -6249.781639     76.786522 12 15 11           
PR02  21114.196623   -570.847290  14301.712492    471.879506  7  9  9           
PR03   6238.209440  -9488.077169  22882.955831     32.898748  7 11  8           
PR04 -11971.422399 -12744.117599  18604.941332     79.129472 11 11  7           
PR05 -23518.906249  -9106.553304   3911.923758     68.644771  8 10 10           
PR07  -5658.164870   9656.322141 -22883.920631    -42.550358  8 10  6           
PR08  12028.691914  12792.450956 -18435.911693    -58.080162 11 12  7           
PR09 -19928.779177  13169.099176  -8841.263084    -15.733054  5 10  9           
PR11   -615.179100  14438.543753  21023.181234      2.012495 10 12  9           
PR12  13876.565916    886.559913  21399.300011    214.837814  8  8  7           
PR13  19838.065101 -12967.697083   9406.309382    -52.371155  9 11 13           
PR14  14228.310201 -19310.729074  -8688.889597     62.312838  9  5 10           
PR15    404.370750 -14269.213143 -21124.558644    104.775560 12  8  6           
PR16 -14682.991749    243.593733 -20920.217842    -12.858863  9 13  9           
PR17   2144.539989 -20621.842313 -14828.440653    410.296603 11  9 10           
PR18  -6180.418882 -24748.696870   1292.050532     70.730934 11 12 12           
PR19 -10650.492304 -16599.666832  16180.825558   -136.822426 11 11  9           
PR20  -9745.519710   3902.182941  23254.561009    -45.839790 14 14 11           
PR21  -1561.608184  21338.031755  13906.297144   -196.425881  7  8 11           
PR22   6502.405940  24490.426295  -2425.733413   -104.030429 15 14 12           
PR24   9931.284394  -4962.314219 -22946.493965     36.056863  8  9  8           
*  2021  3 23  8 15  0.00000000
PR01  21940.372124   9153.981240  -9262.333963     76.787454 13 15 11           
PR02  22686.746943   -272.137025  11642.750783    471.885207  7  9  9           
PR03   8926.326602  -8801.545724  22252.521163     32.899792  7 11  8           
PR04  -9679.083197 -12040.037251  20329.950750     79.131560 11 11  7           
PR05 -22910.103518  -8777.131114   7037.471361     68.645815  8 10  9           
PR07  -8369.597523   8959.514856 -22334.232536    -42.550358  8 10  7           
PR08   9734.007445  12101.472308 -20171.269009    -58.082009 11 11  6           
PR09 -18983.019589  12317.024834 -11693.063766    -15.731079  6 10  9           
PR11  -2295.846796  16290.015820  19497.240736      2.011564  9 11  9           
PR12  11952.399063   2776.449598  22379.263077    214.840127  8  8  7           
PR13  18820.559709 -12089.366326  12235.347356    -52.373018 10 11 12           
PR14  14764.030011 -20025.300680  -5648.646952     62.313769  9  4 10           
PR15   2133.819944 -16101.809090 -19652.753965    104.774628 12  8  7           
PR16 -12838.823826  -1644.932614 -22030.696134    -12.857932  9 13  8           
PR17   2515.262904 -18671.889545 -17169.848491    410.299623 11  8 10           
PR18  -6381.606611 -24652.444202  -1946.823713     70.732909 11 11 12           
PR19 -11242.626370 -18357.025812  13690.483566   -136.824401 11 10  9           
PR20 -10397.494126   1103.000898  23277.481692    -45.840721 14 14 10           
PR21  -1879.863236  19488.860210  16362.849621   -196.428082  7  7 11           
PR22   6735.060416  24531.867987    825.762082   -104.033448 15 13 12           
PR24  10609.770498  -2199.299817 -23073.973377     36.057907  9  9  8           
*  2021  3 23  8 30  0.00000000
PR01  20661.938896   8814.831818 -12095.079532     76.787454 13 15 10           
PR02  23942.589592   -155.196161   8757.448299    471.886026  6  9  9           
PR03  11555.912825  -8331.881392  21191.581694     32.900611  7 11  9           
PR04  -7157.027238 -11470.730062  21661.295165     79.133197 11 11  7           
PR05 -21909.940494  -8420.787634  10026.549316     68.646634  9 10  9           
PR07 -11031.064252   8479.545081 -21349.289683    -42.550358  8  9  8           
PR08   7208.637089  11542.608047 -21512.531492    -58.082827 11 11  5           
PR09 -17881.281373  11142.760892 -14316.740760    -15.730260  7 11  9           
PR11  -3701.265286  18097.689820  17592.730511      2.011564  9 11  8           
PR12  10109.563067   4871.970300  22925.355764    214.843402  8  7  6           
PR13  17654.400791 -10884.064279  14826.382789    -52.373018 10 11 12           
PR14  14998.899982 -20487.342391  -2498.727406     62.313769  8  4 10           
PR15   3592.293575 -17899.629513 -17798.723766    104.774628 11  8  7           
PR16 -11063.762282  -3746.572688 -22715.512287    -12.857932 10 13  8           
PR17   3118.534389 -16502.397473 -19177.081216    410.301260 11  7 10           
PR18  -6448.325433 -24166.841560  -5148.011720     70.733728 10 10 13           
PR19 -11871.991233 -19756.154177  10934.296810   -136.825220 11 11 10           
PR20 -11254.784209  -1613.668725  22848.890366    -45.840721 14 14  9           
PR21  -2428.381363  17401.842452  18501.892305   -196.430537  7  7 11           
PR22   6844.167746  24176.080314   4061.109382   -104.035085 15 12 13           
PR24  11485.865719    494.929034 -22752.491513     36.058726  9  9  7           
*  2021  3 23  8 45  0.00000000
PR01  19029.962782   8533.530191 -14693.006477     76.788385 13 14  9           
PR02  24841.185597   -177.500602   5701.753004    471.888001  6  9  9           
PR03  14059.025666  -8073.893755  19720.387142     32.901655  5 11  9           
PR04  -4463.345213 -11071.201789  22573.267993     79.134354 11 11  7           
PR05 -20533.732352  -8093.370385  12821.221964     68.646747  9 10  9           
PR07 -13573.932562   8212.720176 -19948.499764    -42.551290  7  9  8           
PR08   4510.760341  11150.847997 -22433.424606    -58.083871 11 10  4           
PR09 -16682.692143   9647.627682 -16661.174047    -15.729232  8 11  8           
PR11  -4820.131820  19797.216652  15346.573857      2.011564  9 11  8           
PR12   8399.980571   7127.380810  23027.112699    214.846647  8  7  6           
PR13  16400.021167  -9354.471960  17128.960213    -52.373949 11 11 12           
PR14  14965.498979 -20652.488043    699.704156     62.314701  7  5  9           
PR15   4766.428691 -19598.916972 -15598.543144    104.773697 11  7  7           
PR16  -9409.403888  -6017.159480 -22960.989481    -12.857932 10 13  7           
PR17   3969.816758 -14177.947530 -20811.132063    410.304279 11  6  9           
PR18  -6330.204099 -23320.056923  -8249.519513     70.736634 10  9 13           
PR19 -12480.493858 -20774.773330   7965.775594   -136.827195 11 11 10           
PR20 -12289.317655  -4181.618709  21977.276469    -45.833271 14 15 10           
PR21  -3225.982420  15140.033647  20281.896973   -196.432738  7  8 11           
PR22   6777.483546  23448.137224   7217.041903   -104.038105 14 11 14           
PR24  12532.963479   3055.246677 -21988.332584     36.060701  9  9  8           
EOF
